CYGNUS NG-23            
1 65616U 25208A   25346.15413386  .00014398  00000+0  26408-3 0  9999
2 65616  51.6307 145.3792 0003283 237.6977 122.3694 15.49529746   229
DRAGONFLY               
1 65729U 98067XH  25345.97553572  .00191153  00000+0  14274-2 0  9990
2 65729  51.6238 139.6768 0006728 272.7665  87.2563 15.71570854 13046
1998-067XK              
1 65731U 98067XK  25346.15978115  .00118061  00000+0  11399-2 0  9990
2 65731  51.6278 140.1747 0005053 242.2687 117.7796 15.65576391 13056
RSP-03                  
1 65732U 98067XL  25345.46479526  .00197326  00000+0  16947-2 0  9991
2 65732  51.6260 143.0256 0005825 242.1359 117.9048 15.68184189 12961
GHS-01                  
1 65733U 98067XM  25345.73819417  .00233700  00000+0  15475-2 0  9991
2 65733  51.6266 140.3500 0007045 274.7166  85.3028 15.74255219 13027
YOTSUBA-KULOVER         
1 65941U 98067XN  25345.81546873  .00080384  00000+0  99850-3 0  9992
2 65941  51.6283 144.6232 0001479 240.6156 119.4690 15.59284629  9717
BOTAN                   
1 65942U 98067XP  25346.14280537  .00130896  00000+0  14132-2 0  9995
2 65942  51.6278 142.3097 0003211 233.7514 126.3183 15.62701818  9771
E-KAGAKU-1              
1 65943U 98067XQ  25344.27717868  .00100705  00000+0  12589-2 0  9990
2 65943  51.6298 152.3458 0005250 191.2269 168.8608 15.59004320  9476
HRC MONOBLOCK CAMERA    
1 66052U 98067XR  25346.07244049  .00047939  00000+0  72873-3 0  9990
2 66052  51.6287 144.8345 0003436 180.6956 179.4030 15.54060412  8730
HTV-X1                  
1 66174U 25241A   25346.15413386  .00014398  00000+0  26408-3 0  9996
2 66174  51.6307 145.3792 0003283 237.6977 122.3694 15.49529746   511
SZ-21 MODULE            
1 66515U 25246C   25346.15572269  .00033863  00000+0  37242-3 0  9992
2 66515  41.4775  19.6084 0006330 257.1600 102.8532 15.62436812  4355
SHENZHOU-22             
1 66645U 25272A   25346.13818607  .00030211  00000+0  37752-3 0  9992
2 66645  41.4684  20.3596 0008469  25.2431 334.8820 15.59138453263570
