CCSDS_OMM_VERS = 2.0
CREATION_DATE  = 
ORIGINATOR     = 

OBJECT_NAME    = CYGNUS NG-23
OBJECT_ID      = 2025-208A
CENTER_NAME    = EARTH
REF_FRAME      = TEME
TIME_SYSTEM    = UTC
MEAN_ELEMENT_THEORY = SGP/SGP4

EPOCH          = 2025-12-12T03:41:57.165504
MEAN_MOTION    = 15.49529746
ECCENTRICITY   = .00032837
INCLINATION    = 51.6307
RA_OF_ASC_NODE = 145.3792
ARG_OF_PERICENTER = 237.6977
MEAN_ANOMALY   = 122.3694

EPHEMERIS_TYPE = 0
CLASSIFICATION_TYPE = U
NORAD_CAT_ID   = 65616
ELEMENT_SET_NO = 999
REV_AT_EPOCH   = 22
BSTAR          = .26408062E-3
MEAN_MOTION_DOT = .14398E-3
MEAN_MOTION_DDOT = 0

CCSDS_OMM_VERS = 2.0
CREATION_DATE  = 
ORIGINATOR     = 

OBJECT_NAME    = DRAGONFLY
OBJECT_ID      = 1998-067XH
CENTER_NAME    = EARTH
REF_FRAME      = TEME
TIME_SYSTEM    = UTC
MEAN_ELEMENT_THEORY = SGP/SGP4

EPOCH          = 2025-12-11T23:24:46.286208
MEAN_MOTION    = 15.71570854
ECCENTRICITY   = .0006728
INCLINATION    = 51.6238
RA_OF_ASC_NODE = 139.6768
ARG_OF_PERICENTER = 272.7665
MEAN_ANOMALY   = 87.2563

EPHEMERIS_TYPE = 0
CLASSIFICATION_TYPE = U
NORAD_CAT_ID   = 65729
ELEMENT_SET_NO = 999
REV_AT_EPOCH   = 1304
BSTAR          = .14274E-2
MEAN_MOTION_DOT = .191153E-2
MEAN_MOTION_DDOT = 0

CCSDS_OMM_VERS = 2.0
CREATION_DATE  = 
ORIGINATOR     = 

OBJECT_NAME    = 1998-067XK
OBJECT_ID      = 1998-067XK
CENTER_NAME    = EARTH
REF_FRAME      = TEME
TIME_SYSTEM    = UTC
MEAN_ELEMENT_THEORY = SGP/SGP4

EPOCH          = 2025-12-12T03:50:05.091360
MEAN_MOTION    = 15.65576391
ECCENTRICITY   = .00050531
INCLINATION    = 51.6278
RA_OF_ASC_NODE = 140.1747
ARG_OF_PERICENTER = 242.2687
MEAN_ANOMALY   = 117.7796

EPHEMERIS_TYPE = 0
CLASSIFICATION_TYPE = U
NORAD_CAT_ID   = 65731
ELEMENT_SET_NO = 999
REV_AT_EPOCH   = 1305
BSTAR          = .1139871E-2
MEAN_MOTION_DOT = .118061E-2
MEAN_MOTION_DDOT = 0

CCSDS_OMM_VERS = 2.0
CREATION_DATE  = 
ORIGINATOR     = 

OBJECT_NAME    = RSP-03
OBJECT_ID      = 1998-067XL
CENTER_NAME    = EARTH
REF_FRAME      = TEME
TIME_SYSTEM    = UTC
MEAN_ELEMENT_THEORY = SGP/SGP4

EPOCH          = 2025-12-11T11:09:18.310464
MEAN_MOTION    = 15.68184189
ECCENTRICITY   = .00058259
INCLINATION    = 51.6260
RA_OF_ASC_NODE = 143.0256
ARG_OF_PERICENTER = 242.1359
MEAN_ANOMALY   = 117.9048

EPHEMERIS_TYPE = 0
CLASSIFICATION_TYPE = U
NORAD_CAT_ID   = 65732
ELEMENT_SET_NO = 999
REV_AT_EPOCH   = 1296
BSTAR          = .16947067E-2
MEAN_MOTION_DOT = .197326E-2
MEAN_MOTION_DDOT = 0

CCSDS_OMM_VERS = 2.0
CREATION_DATE  = 
ORIGINATOR     = 

OBJECT_NAME    = GHS-01
OBJECT_ID      = 1998-067XM
CENTER_NAME    = EARTH
REF_FRAME      = TEME
TIME_SYSTEM    = UTC
MEAN_ELEMENT_THEORY = SGP/SGP4

EPOCH          = 2025-12-11T17:42:59.976288
MEAN_MOTION    = 15.74255219
ECCENTRICITY   = .0007045
INCLINATION    = 51.6266
RA_OF_ASC_NODE = 140.3500
ARG_OF_PERICENTER = 274.7166
MEAN_ANOMALY   = 85.3028

EPHEMERIS_TYPE = 0
CLASSIFICATION_TYPE = U
NORAD_CAT_ID   = 65733
ELEMENT_SET_NO = 999
REV_AT_EPOCH   = 1302
BSTAR          = .15474625E-2
MEAN_MOTION_DOT = .2337E-2
MEAN_MOTION_DDOT = 0

CCSDS_OMM_VERS = 2.0
CREATION_DATE  = 
ORIGINATOR     = 

OBJECT_NAME    = YOTSUBA-KULOVER
OBJECT_ID      = 1998-067XN
CENTER_NAME    = EARTH
REF_FRAME      = TEME
TIME_SYSTEM    = UTC
MEAN_ELEMENT_THEORY = SGP/SGP4

EPOCH          = 2025-12-11T19:34:16.498272
MEAN_MOTION    = 15.59284629
ECCENTRICITY   = .00014791
INCLINATION    = 51.6283
RA_OF_ASC_NODE = 144.6232
ARG_OF_PERICENTER = 240.6156
MEAN_ANOMALY   = 119.4690

EPHEMERIS_TYPE = 0
CLASSIFICATION_TYPE = U
NORAD_CAT_ID   = 65941
ELEMENT_SET_NO = 999
REV_AT_EPOCH   = 971
BSTAR          = .99850147E-3
MEAN_MOTION_DOT = .80384E-3
MEAN_MOTION_DDOT = 0

CCSDS_OMM_VERS = 2.0
CREATION_DATE  = 
ORIGINATOR     = 

OBJECT_NAME    = BOTAN
OBJECT_ID      = 1998-067XP
CENTER_NAME    = EARTH
REF_FRAME      = TEME
TIME_SYSTEM    = UTC
MEAN_ELEMENT_THEORY = SGP/SGP4

EPOCH          = 2025-12-12T03:25:38.383968
MEAN_MOTION    = 15.62701818
ECCENTRICITY   = .00032115
INCLINATION    = 51.6278
RA_OF_ASC_NODE = 142.3097
ARG_OF_PERICENTER = 233.7514
MEAN_ANOMALY   = 126.3183

EPHEMERIS_TYPE = 0
CLASSIFICATION_TYPE = U
NORAD_CAT_ID   = 65942
ELEMENT_SET_NO = 999
REV_AT_EPOCH   = 977
BSTAR          = .14131762E-2
MEAN_MOTION_DOT = .130896E-2
MEAN_MOTION_DDOT = 0

CCSDS_OMM_VERS = 2.0
CREATION_DATE  = 
ORIGINATOR     = 

OBJECT_NAME    = E-KAGAKU-1
OBJECT_ID      = 1998-067XQ
CENTER_NAME    = EARTH
REF_FRAME      = TEME
TIME_SYSTEM    = UTC
MEAN_ELEMENT_THEORY = SGP/SGP4

EPOCH          = 2025-12-10T06:39:08.237952
MEAN_MOTION    = 15.59004320
ECCENTRICITY   = .00052507
INCLINATION    = 51.6298
RA_OF_ASC_NODE = 152.3458
ARG_OF_PERICENTER = 191.2269
MEAN_ANOMALY   = 168.8608

EPHEMERIS_TYPE = 0
CLASSIFICATION_TYPE = U
NORAD_CAT_ID   = 65943
ELEMENT_SET_NO = 999
REV_AT_EPOCH   = 947
BSTAR          = .12588803E-2
MEAN_MOTION_DOT = .100705E-2
MEAN_MOTION_DDOT = 0

CCSDS_OMM_VERS = 2.0
CREATION_DATE  = 
ORIGINATOR     = 

OBJECT_NAME    = HRC MONOBLOCK CAMERA
OBJECT_ID      = 1998-067XR
CENTER_NAME    = EARTH
REF_FRAME      = TEME
TIME_SYSTEM    = UTC
MEAN_ELEMENT_THEORY = SGP/SGP4

EPOCH          = 2025-12-12T01:44:18.858336
MEAN_MOTION    = 15.54060412
ECCENTRICITY   = .0003436
INCLINATION    = 51.6287
RA_OF_ASC_NODE = 144.8345
ARG_OF_PERICENTER = 180.6956
MEAN_ANOMALY   = 179.4030

EPHEMERIS_TYPE = 0
CLASSIFICATION_TYPE = U
NORAD_CAT_ID   = 66052
ELEMENT_SET_NO = 999
REV_AT_EPOCH   = 873
BSTAR          = .72872732E-3
MEAN_MOTION_DOT = .47939E-3
MEAN_MOTION_DDOT = 0

CCSDS_OMM_VERS = 2.0
CREATION_DATE  = 
ORIGINATOR     = 

OBJECT_NAME    = HTV-X1
OBJECT_ID      = 2025-241A
CENTER_NAME    = EARTH
REF_FRAME      = TEME
TIME_SYSTEM    = UTC
MEAN_ELEMENT_THEORY = SGP/SGP4

EPOCH          = 2025-12-12T03:41:57.165504
MEAN_MOTION    = 15.49529746
ECCENTRICITY   = .00032837
INCLINATION    = 51.6307
RA_OF_ASC_NODE = 145.3792
ARG_OF_PERICENTER = 237.6977
MEAN_ANOMALY   = 122.3694

EPHEMERIS_TYPE = 0
CLASSIFICATION_TYPE = U
NORAD_CAT_ID   = 66174
ELEMENT_SET_NO = 999
REV_AT_EPOCH   = 51
BSTAR          = .26408062E-3
MEAN_MOTION_DOT = .14398E-3
MEAN_MOTION_DDOT = 0

CCSDS_OMM_VERS = 2.0
CREATION_DATE  = 
ORIGINATOR     = 

OBJECT_NAME    = SZ-21 MODULE
OBJECT_ID      = 2025-246C
CENTER_NAME    = EARTH
REF_FRAME      = TEME
TIME_SYSTEM    = UTC
MEAN_ELEMENT_THEORY = SGP/SGP4

EPOCH          = 2025-12-12T03:44:14.440416
MEAN_MOTION    = 15.62436812
ECCENTRICITY   = .00063303
INCLINATION    = 41.4775
RA_OF_ASC_NODE = 19.6084
ARG_OF_PERICENTER = 257.1600
MEAN_ANOMALY   = 102.8532

EPHEMERIS_TYPE = 0
CLASSIFICATION_TYPE = U
NORAD_CAT_ID   = 66515
ELEMENT_SET_NO = 999
REV_AT_EPOCH   = 435
BSTAR          = .37241504E-3
MEAN_MOTION_DOT = .33863E-3
MEAN_MOTION_DDOT = 0

CCSDS_OMM_VERS = 2.0
CREATION_DATE  = 
ORIGINATOR     = 

OBJECT_NAME    = SHENZHOU-22
OBJECT_ID      = 2025-272A
CENTER_NAME    = EARTH
REF_FRAME      = TEME
TIME_SYSTEM    = UTC
MEAN_ELEMENT_THEORY = SGP/SGP4

EPOCH          = 2025-12-12T03:18:59.276448
MEAN_MOTION    = 15.59138453
ECCENTRICITY   = .0008469
INCLINATION    = 41.4684
RA_OF_ASC_NODE = 20.3596
ARG_OF_PERICENTER = 25.2431
MEAN_ANOMALY   = 334.8820

EPHEMERIS_TYPE = 0
CLASSIFICATION_TYPE = U
NORAD_CAT_ID   = 66645
ELEMENT_SET_NO = 999
REV_AT_EPOCH   = 26357
BSTAR          = .37752271E-3
MEAN_MOTION_DOT = .30211E-3
MEAN_MOTION_DDOT = 0

